ORBCOMM FM05            
1 25117U 97084F   24363.01954282  .00004790  00000+0  14059-2 0  9993
2 25117  45.0139 109.2522 0000968 167.9134 192.1741 14.44792555416782
ORBCOMM FM06            
1 25118U 97084G   24363.06195809  .00004764  00000+0  13932-2 0  9991
2 25118  45.0132 108.9982 0001545 210.1559 319.3544 14.44973957416798
ORBCOMM FM07            
1 25119U 97084H   24362.76119330  .00004749  00000+0  13924-2 0  9997
2 25119  45.0126 111.1581 0000823 116.6070 243.4865 14.44849151416712
ORBCOMM FM03            
1 25158U 98007B   24363.02722347  .00003825  00000+0  14053-2 0  9992
2 25158 107.9661 144.1542 0046933 191.2486 168.7607 14.33684215399643
ORBCOMM FM04            
1 25159U 98007C   24362.97240904  .00003875  00000+0  14187-2 0  9993
2 25159 107.9649 147.1439 0042487 189.2303 170.8060 14.33952571399788
ORBCOMM FM17            
1 25413U 98046A   24363.39244736  .00002798  00000+0  10343-2 0  9996
2 25413  44.9953 343.3057 0001814  15.9593 344.1311 14.34421014378810
ORBCOMM FM18            
1 25414U 98046B   24362.90895453  .00003458  00000+0  11877-2 0  9998
2 25414  44.9927 267.4072 0003844 125.0500 235.0709 14.37622739379596
ORBCOMM FM19            
1 25415U 98046C   24362.92021562  .00003438  00000+0  11855-2 0  9997
2 25415  44.9938 269.0866 0002781 109.7348 342.2374 14.37437878379559
